{
  "type": "FeatureCollection",
  "features": [
    {
      "type": "Feature",
      "properties": {
        "norad_id": 30004,
        "name": "FENGYUN 1C DEB",
        "group": "fengyun-1c-debris",
        "lat": 30.62258485383687,
        "lon": 171.0776560201214,
        "alt_km": 824.9570054573378,
        "timestamp": "2025-12-21T03:56:51.109595+00:00",
        "meta_object_name": "FENGYUN 1C DEB",
        "meta_object_id": "1999-025MD",
        "meta_epoch": "2025-12-20T17:56:02.181408",
        "meta_mean_motion": 14.17080629,
        "meta_eccentricity": 0.0038462,
        "meta_inclination": 99.2237,
        "meta_ra_of_asc_node": 176.1646,
        "meta_arg_of_pericenter": 320.131,
        "meta_mean_anomaly": 103.2804,
        "meta_ephemeris_type": 0,
        "meta_classification_type": "U",
        "meta_norad_cat_id": 30004,
        "meta_element_set_no": 999,
        "meta_rev_at_epoch": 97420,
        "meta_bstar": 0.0005141,
        "meta_mean_motion_dot": 9.94e-06,
        "meta_mean_motion_ddot": 0,
        "tle_line1": "1 30004U 99025MD  25354.74724747  .00000994  00000+0  51410-3 0  9998",
        "tle_line2": "2 30004  99.2237 176.1646 0038462 320.1310 103.2804 14.17080629974203"
      },
      "geometry": {
        "type": "Point",
        "coordinates": [
          171.0776560201214,
          30.62258485383687
        ]
      }
    },
    {
      "type": "Feature",
      "properties": {
        "norad_id": 30005,
        "name": "FENGYUN 1C DEB",
        "group": "fengyun-1c-debris",
        "lat": 56.8973212140303,
        "lon": -57.95335609030844,
        "alt_km": 807.238240626134,
        "timestamp": "2025-12-21T03:56:51.109605+00:00",
        "meta_object_name": "FENGYUN 1C DEB",
        "meta_object_id": "1999-025ME",
        "meta_epoch": "2025-12-18T20:37:37.606656",
        "meta_mean_motion": 13.52232242,
        "meta_eccentricity": 0.03470849,
        "meta_inclination": 99.3023,
        "meta_ra_of_asc_node": 314.4408,
        "meta_arg_of_pericenter": 77.8968,
        "meta_mean_anomaly": 286.0828,
        "meta_ephemeris_type": 0,
        "meta_classification_type": "U",
        "meta_norad_cat_id": 30005,
        "meta_element_set_no": 999,
        "meta_rev_at_epoch": 93029,
        "meta_bstar": 0.0012018224,
        "meta_mean_motion_dot": 1.119e-05,
        "meta_mean_motion_ddot": 0,
        "tle_line1": "1 30005U 99025ME  25352.85946304  .00001119  00000+0  12018-2 0  9994",
        "tle_line2": "2 30005  99.3023 314.4408 0347084  77.8968 286.0828 13.52232242930294"
      },
      "geometry": {
        "type": "Point",
        "coordinates": [
          -57.95335609030844,
          56.8973212140303
        ]
      }
    },
    {
      "type": "Feature",
      "properties": {
        "norad_id": 30007,
        "name": "FENGYUN 1C DEB",
        "group": "fengyun-1c-debris",
        "lat": -18.583457425771087,
        "lon": -99.98212850234914,
        "alt_km": 765.5163924467988,
        "timestamp": "2025-12-21T03:56:51.109614+00:00",
        "meta_object_name": "FENGYUN 1C DEB",
        "meta_object_id": "1999-025MG",
        "meta_epoch": "2025-12-20T16:31:41.469024",
        "meta_mean_motion": 14.25475776,
        "meta_eccentricity": 0.0065466,
        "meta_inclination": 99.1788,
        "meta_ra_of_asc_node": 256.4039,
        "meta_arg_of_pericenter": 352.5886,
        "meta_mean_anomaly": 68.4833,
        "meta_ephemeris_type": 0,
        "meta_classification_type": "U",
        "meta_norad_cat_id": 30007,
        "meta_element_set_no": 999,
        "meta_rev_at_epoch": 97469,
        "meta_bstar": 0.001197,
        "meta_mean_motion_dot": 2.844e-05,
        "meta_mean_motion_ddot": 0,
        "tle_line1": "1 30007U 99025MG  25354.68867441  .00002844  00000+0  11970-2 0  9995",
        "tle_line2": "2 30007  99.1788 256.4039 0065466 352.5886  68.4833 14.25475776974692"
      },
      "geometry": {
        "type": "Point",
        "coordinates": [
          -99.98212850234914,
          -18.583457425771087
        ]
      }
    },
    {
      "type": "Feature",
      "properties": {
        "norad_id": 30008,
        "name": "FENGYUN 1C DEB",
        "group": "fengyun-1c-debris",
        "lat": 36.75488246185049,
        "lon": -54.3610302469937,
        "alt_km": 686.8488566750748,
        "timestamp": "2025-12-21T03:56:51.109624+00:00",
        "meta_object_name": "FENGYUN 1C DEB",
        "meta_object_id": "1999-025MH",
        "meta_epoch": "2025-12-20T19:51:02.043072",
        "meta_mean_motion": 14.66443576,
        "meta_eccentricity": 0.0039293,
        "meta_inclination": 99.3698,
        "meta_ra_of_asc_node": 312.338,
        "meta_arg_of_pericenter": 166.613,
        "meta_mean_anomaly": 251.1309,
        "meta_ephemeris_type": 0,
        "meta_classification_type": "U",
        "meta_norad_cat_id": 30008,
        "meta_element_set_no": 999,
        "meta_rev_at_epoch": 99178,
        "meta_bstar": 0.00092838,
        "meta_mean_motion_dot": 5.137e-05,
        "meta_mean_motion_ddot": 0,
        "tle_line1": "1 30008U 99025MH  25354.82710698  .00005137  00000+0  92838-3 0  9994",
        "tle_line2": "2 30008  99.3698 312.3380 0039293 166.6130 251.1309 14.66443576991787"
      },
      "geometry": {
        "type": "Point",
        "coordinates": [
          -54.3610302469937,
          36.75488246185049
        ]
      }
    },
    {
      "type": "Feature",
      "properties": {
        "norad_id": 30009,
        "name": "FENGYUN 1C DEB",
        "group": "fengyun-1c-debris",
        "lat": 33.93779820583537,
        "lon": 43.89909901494925,
        "alt_km": 869.0201691614784,
        "timestamp": "2025-12-21T03:56:51.109633+00:00",
        "meta_object_name": "FENGYUN 1C DEB",
        "meta_object_id": "1999-025MJ",
        "meta_epoch": "2025-12-20T15:49:12.671616",
        "meta_mean_motion": 14.0487603,
        "meta_eccentricity": 0.0064178,
        "meta_inclination": 99.0144,
        "meta_ra_of_asc_node": 49.5294,
        "meta_arg_of_pericenter": 312.5813,
        "meta_mean_anomaly": 46.9949,
        "meta_ephemeris_type": 0,
        "meta_classification_type": "U",
        "meta_norad_cat_id": 30009,
        "meta_element_set_no": 999,
        "meta_rev_at_epoch": 96594,
        "meta_bstar": 0.00075337,
        "meta_mean_motion_dot": 1.188e-05,
        "meta_mean_motion_ddot": 0,
        "tle_line1": "1 30009U 99025MJ  25354.65917444  .00001188  00000+0  75337-3 0  9991",
        "tle_line2": "2 30009  99.0144  49.5294 0064178 312.5813  46.9949 14.04876030965940"
      },
      "geometry": {
        "type": "Point",
        "coordinates": [
          43.89909901494925,
          33.93779820583537
        ]
      }
    },
    {
      "type": "Feature",
      "properties": {
        "norad_id": 30010,
        "name": "FENGYUN 1C DEB",
        "group": "fengyun-1c-debris",
        "lat": 64.43521226396427,
        "lon": 27.10891541536831,
        "alt_km": 784.8658934192854,
        "timestamp": "2025-12-21T03:56:51.109642+00:00",
        "meta_object_name": "FENGYUN 1C DEB",
        "meta_object_id": "1999-025MK",
        "meta_epoch": "2025-12-20T12:20:24.918720",
        "meta_mean_motion": 14.24992259,
        "meta_eccentricity": 0.00730125,
        "meta_inclination": 99.0695,
        "meta_ra_of_asc_node": 186.931,
        "meta_arg_of_pericenter": 186.9473,
        "meta_mean_anomaly": 193.6321,
        "meta_ephemeris_type": 0,
        "meta_classification_type": "U",
        "meta_norad_cat_id": 30010,
        "meta_element_set_no": 999,
        "meta_rev_at_epoch": 98371,
        "meta_bstar": 9.64059e-05,
        "meta_mean_motion_dot": 1.85e-06,
        "meta_mean_motion_ddot": 0,
        "tle_line1": "1 30010U 99025MK  25354.51417730  .00000185  00000+0  96406-4 0  9998",
        "tle_line2": "2 30010  99.0695 186.9310 0073012 186.9473 193.6321 14.24992259983713"
      },
      "geometry": {
        "type": "Point",
        "coordinates": [
          27.10891541536831,
          64.43521226396427
        ]
      }
    },
    {
      "type": "Feature",
      "properties": {
        "norad_id": 30012,
        "name": "FENGYUN 1C DEB",
        "group": "fengyun-1c-debris",
        "lat": -39.80679177740164,
        "lon": 56.46928908197664,
        "alt_km": 1046.2526961848425,
        "timestamp": "2025-12-21T03:56:51.109652+00:00",
        "meta_object_name": "FENGYUN 1C DEB",
        "meta_object_id": "1999-025MM",
        "meta_epoch": "2025-12-20T16:34:30.082080",
        "meta_mean_motion": 13.85770654,
        "meta_eccentricity": 0.013722,
        "meta_inclination": 99.4632,
        "meta_ra_of_asc_node": 48.0012,
        "meta_arg_of_pericenter": 124.626,
        "meta_mean_anomaly": 352.7487,
        "meta_ephemeris_type": 0,
        "meta_classification_type": "U",
        "meta_norad_cat_id": 30012,
        "meta_element_set_no": 999,
        "meta_rev_at_epoch": 95658,
        "meta_bstar": 0.00021638,
        "meta_mean_motion_dot": 2.22e-06,
        "meta_mean_motion_ddot": 0,
        "tle_line1": "1 30012U 99025MM  25354.69062595  .00000222  00000+0  21638-3 0  9990",
        "tle_line2": "2 30012  99.4632  48.0012 0137220 124.6260 352.7487 13.85770654956587"
      },
      "geometry": {
        "type": "Point",
        "coordinates": [
          56.46928908197664,
          -39.80679177740164
        ]
      }
    }
  ]
}